NORAD_CAT_ID,OBJECT_NAME,OBJECT_TYPE,EPOCH,MEAN_MOTION,ECCENTRICITY,INCLINATION,RA_OF_ASC_NODE,ARG_OF_PERICENTER,MEAN_ANOMALY,BSTAR,MEAN_MOTION_DOT,MEAN_MOTION_DDOT,TLE_LINE0,TLE_LINE1,TLE_LINE2,SEMIMAJOR_AXIS,PERIOD,APOGEE,PERIGEE,DECAYED
49180.0,STARLINK-3050,PAYLOAD,2023-10-09 12:44:20,14.9833425,0.0002534,70.0001,338.6918,270.0217,90.0651,0.00010625,1.175e-05,0.0,0 STARLINK-3050,1 49180U 21082BC  23282.53079057  .00001175  00000-0  10625-3 0  9999,2 49180  70.0001 338.6918 0002534 270.0217  90.0651 14.98334250115505,6950.18,96.107,573.806,570.284,0.0
49180.0,STARLINK-3050,PAYLOAD,2023-10-09 14:20:27,14.98349261,0.0002257,70.0002,338.5235,263.4303,96.6599,-0.00016024,-2.005e-05,0.0,0 STARLINK-3050,1 49180U 21082BC  23282.59754456 -.00002005  00000-0 -16024-3 0  9992,2 49180  70.0002 338.5235 0002257 263.4303  96.6599 14.98349261115513,6950.133,96.106,573.567,570.43,0.0
49180.0,STARLINK-3050,PAYLOAD,2023-10-10 12:46:20,14.98336148,0.0002653,70.0,336.1665,267.0223,93.0632,0.00016588,1.887e-05,0.0,0 STARLINK-3050,1 49180U 21082BC  23283.53218569  .00001887  00000-0  16588-3 0  9997,2 49180  70.0000 336.1665 0002653 267.0223  93.0632 14.98336148115657,6950.174,96.107,573.883,570.195,0.0
49180.0,STARLINK-3050,PAYLOAD,2023-10-11 04:47:42,14.98328105,0.0002608,69.9998,334.4834,262.4726,97.6137,5.8058e-05,6e-06,0.0,0 STARLINK-3050,1 49180U 21082BC  23284.19979309  .00000600  00000-0  58058-4 0  9997,2 49180  69.9998 334.4834 0002608 262.4726  97.6137 14.98328105115751,6950.199,96.107,573.876,570.251,0.0
49180.0,STARLINK-3050,PAYLOAD,2023-10-11 12:48:22,14.98326615,0.0003074,69.9991,333.641,273.8958,86.185,-2.423e-06,-1.22e-06,0.0,0 STARLINK-3050,1 49180U 21082BC  23284.53359585 -.00000122  00000-0 -24230-5 0  9990,2 49180  69.9991 333.6410 0003074 273.8958  86.1850 14.98326615115801,6950.203,96.107,574.205,569.932,0.0
49180.0,STARLINK-3050,PAYLOAD,2023-10-12 04:49:43,14.98317887,0.000284,69.9997,331.9578,267.3155,92.7678,0.00024873,2.875e-05,0.0,0 STARLINK-3050,1 49180U 21082BC  23285.20119431  .00002875  00000-0  24873-3 0  9995,2 49180  69.9997 331.9578 0002840 267.3155  92.7678 14.98317887115903,6950.23,96.108,574.069,570.121,0.0
49180.0,STARLINK-3050,PAYLOAD,2023-10-12 12:50:23,14.98323835,0.0002655,69.9996,331.1154,266.3099,93.7756,0.00033084,3.856e-05,0.0,0 STARLINK-3050,1 49180U 21082BC  23285.53499147  .00003856  00000-0  33084-3 0  9990,2 49180  69.9996 331.1154 0002655 266.3099  93.7756 14.98323835115957,6950.212,96.107,573.922,570.232,0.0
49180.0,STARLINK-3050,PAYLOAD,2023-10-13 04:51:44,14.98325032,0.0002602,69.9996,329.433,270.3121,89.774,0.00017915,2.045e-05,0.0,0 STARLINK-3050,1 49180U 21082BC  23286.20259326  .00002045  00000-0  17915-3 0  9992,2 49180  69.9996 329.4330 0002602 270.3121  89.7740 14.98325032116057,6950.208,96.107,573.882,570.265,0.0
49180.0,STARLINK-3050,PAYLOAD,2023-10-13 12:52:24,14.98330431,0.0002623,69.9995,328.5904,269.9822,90.1036,0.0001942,2.225e-05,0.0,0 STARLINK-3050,1 49180U 21082BC  23286.53639000  .00002225  00000-0  19420-3 0  9992,2 49180  69.9995 328.5904 0002623 269.9822  90.1036 14.98330431116107,6950.192,96.107,573.88,570.234,0.0
49180.0,STARLINK-3050,PAYLOAD,2023-10-14 04:53:44,14.98331559,0.0002817,69.9989,326.9066,271.3844,88.6993,0.00019906,2.283e-05,0.0,0 STARLINK-3050,1 49180U 21082BC  23287.20398757  .00002283  00000-0  19906-3 0  9991,2 49180  69.9989 326.9066 0002817 271.3844  88.6993 14.98331559116204,6950.188,96.107,574.011,570.095,0.0
49180.0,STARLINK-3050,PAYLOAD,2023-10-14 12:54:24,14.98337594,0.0002598,69.9994,326.0662,268.3279,91.7583,0.00013627,1.534e-05,0.0,0 STARLINK-3050,1 49180U 21082BC  23287.53778329  .00001534  00000-0  13627-3 0  9996,2 49180  69.9994 326.0662 0002598 268.3279  91.7583 14.98337594116257,6950.169,96.107,573.84,570.229,0.0
49180.0,STARLINK-3050,PAYLOAD,2023-10-15 04:55:46,14.98326942,0.0002348,69.9994,324.3831,268.4051,91.6839,-0.00018417,-2.289e-05,0.0,0 STARLINK-3050,1 49180U 21082BC  23288.20539780 -.00002289  00000-0 -18417-3 0  9999,2 49180  69.9994 324.3831 0002348 268.4051  91.6839 14.98326942116357,6950.202,96.107,573.699,570.435,0.0
49180.0,STARLINK-3050,PAYLOAD,2023-10-15 11:20:18,14.98319642,0.0002483,69.9993,323.7098,271.7439,88.3436,-7.6548e-05,-1.006e-05,0.0,0 STARLINK-3050,1 49180U 21082BC  23288.47244036 -.00001006  00000-0 -76548-4 0  9991,2 49180  69.9993 323.7098 0002483 271.7439  88.3436 14.98319642116390,6950.225,96.108,573.816,570.364,0.0
49180.0,STARLINK-3050,PAYLOAD,2023-10-15 19:20:58,14.98328281,0.0002903,69.9986,322.8673,272.3614,87.7212,-4.6198e-05,-6.44e-06,0.0,0 STARLINK-3050,1 49180U 21082BC  23288.80623403 -.00000644  00000-0 -46198-4 0  9992,2 49180  69.9986 322.8673 0002903 272.3614  87.7212 14.98328281116440,6950.198,96.107,574.081,570.046,0.0
49180.0,STARLINK-3050,PAYLOAD,2023-10-16 08:10:02,14.98334843,0.0002987,69.998,321.5204,271.0786,89.0031,4.4056e-05,4.33e-06,0.0,0 STARLINK-3050,1 49180U 21082BC  23289.34030733  .00000433  00000-0  44056-4 0  9995,2 49180  69.9980 321.5204 0002987 271.0786  89.0031 14.98334843116522,6950.178,96.107,574.119,569.967,0.0
49180.0,STARLINK-3050,PAYLOAD,2023-10-16 11:22:18,14.98336366,0.000288,69.9982,321.1835,271.9525,88.1304,8.0113e-05,8.63e-06,0.0,0 STARLINK-3050,1 49180U 21082BC  23289.47382523  .00000863  00000-0  80113-4 0  9997,2 49180  69.9982 321.1835 0002880 271.9525  88.1304 14.98336366116549,6950.173,96.107,574.04,570.037,0.0
49180.0,STARLINK-3050,PAYLOAD,2023-10-17 11:24:19,14.98326876,0.0002622,69.9986,318.6588,265.4221,94.6639,0.00017839,2.036e-05,0.0,0 STARLINK-3050,1 49180U 21082BC  23290.47522975  .00002036  00000-0  17839-3 0  9994,2 49180  69.9986 318.6588 0002622 265.4221  94.6639 14.98326876116698,6950.203,96.107,573.89,570.245,0.0
49180.0,STARLINK-3050,PAYLOAD,2023-10-18 01:49:32,14.98330312,0.0002966,69.9995,317.1433,271.7154,88.3665,6.915e-05,7.32e-06,0.0,0 STARLINK-3050,1 49180U 21082BC  23291.07606982  .00000732  00000-0  69150-4 0  9997,2 49180  69.9995 317.1433 0002966 271.7154  88.3665 14.98330312116786,6950.192,96.107,574.118,569.995,0.0
49180.0,STARLINK-3050,PAYLOAD,2023-10-18 11:26:20,14.98333969,0.0002738,69.9984,316.134,268.7583,91.3262,4.7391e-05,4.73e-06,0.0,0 STARLINK-3050,1 49180U 21082BC  23291.47662762  .00000473  00000-0  47391-4 0  9994,2 49180  69.9984 316.1340 0002738 268.7583  91.3262 14.98333969116844,6950.181,96.107,573.949,570.143,0.0
49180.0,STARLINK-3050,PAYLOAD,2023-10-19 11:28:21,14.98336776,0.0002807,69.9982,313.6087,271.9718,88.1119,6.766e-05,7.15e-06,0.0,0 STARLINK-3050,1 49180U 21082BC  23292.47802324  .00000715  00000-0  67660-4 0  9995,2 49180  69.9982 313.6087 0002807 271.9718  88.1119 14.98336776116995,6950.172,96.107,573.988,570.086,0.0
49180.0,STARLINK-3050,PAYLOAD,2023-10-19 19:29:01,14.98332222,0.0002779,69.9982,312.7663,271.9257,88.1584,4.2842e-05,4.18e-06,0.0,0 STARLINK-3050,1 49180U 21082BC  23292.81182594  .00000418  00000-0  42842-4 0  9998,2 49180  69.9982 312.7663 0002779 271.9257  88.1584 14.98332222117046,6950.186,96.107,573.982,570.12,0.0
49180.0,STARLINK-3050,PAYLOAD,2023-10-20 05:05:50,14.98329002,0.0002766,69.9982,311.7562,271.6946,88.3897,-1.298e-05,-2.48e-06,0.0,0 STARLINK-3050,1 49180U 21082BC  23293.21238906 -.00000248  00000-0 -12980-4 0  9995,2 49180  69.9982 311.7562 0002766 271.6946  88.3897 14.98329002117109,6950.196,96.107,573.983,570.139,0.0
49180.0,STARLINK-3050,PAYLOAD,2023-10-20 11:30:22,14.98327771,0.0002725,69.9984,311.0825,271.3243,88.7603,-1.8503e-05,-3.14e-06,0.0,0 STARLINK-3050,1 49180U 21082BC  23293.47943017 -.00000314  00000-0 -18503-4 0  9990,2 49180  69.9984 311.0825 0002725 271.3243  88.7603 14.98327771117142,6950.2,96.107,573.959,570.171,0.0
49180.0,STARLINK-3050,PAYLOAD,2023-10-21 01:55:34,14.98352075,0.0002819,69.9978,309.5675,273.7076,86.376,-0.00037674,-4.588e-05,0.0,0 STARLINK-3050,1 49180U 21082BC  23294.08026603 -.00004588  00000-0 -37674-3 0  9997,2 49180  69.9978 309.5675 0002819 273.7076  86.3760 14.98352075117237,6950.125,96.106,573.949,570.03,0.0
49180.0,STARLINK-3050,PAYLOAD,2023-10-21 11:32:23,14.98331955,0.0002676,69.9985,308.5582,281.6057,78.4802,5.058e-05,5.11e-06,0.0,0 STARLINK-3050,1 49180U 21082BC  23294.48082739  .00000511  00000-0  50580-4 0  9995,2 49180  69.9985 308.5582 0002676 281.6057  78.4802 14.98331955117298,6950.187,96.107,573.912,570.192,0.0
49180.0,STARLINK-3050,PAYLOAD,2023-10-21 17:56:55,14.98333234,0.0002752,69.9991,307.8852,266.3144,93.77,4.5334e-05,4.48e-06,0.0,0 STARLINK-3050,1 49180U 21082BC  23294.74786464  .00000448  00000-0  45334-4 0  9990,2 49180  69.9991 307.8852 0002752 266.3144  93.7700 14.98333234117333,6950.183,96.107,573.961,570.135,0.0
49180.0,STARLINK-3050,PAYLOAD,2023-10-22 09:58:16,14.98328995,0.0002449,69.9984,306.2013,262.6637,97.4244,0.00010882,1.206e-05,0.0,0 STARLINK-3050,1 49180U 21082BC  23295.41546551  .00001206  00000-0  10882-3 0  9998,2 49180  69.9984 306.2013 0002449 262.6637  97.4244 14.98328995117439,6950.196,96.107,573.763,570.359,0.0
49180.0,STARLINK-3050,PAYLOAD,2023-10-23 05:11:52,14.98332622,0.0002777,69.9987,304.1807,227.0879,133.0047,5.6587e-05,5.82e-06,0.0,0 STARLINK-3050,1 49180U 21082BC  23296.21658304  .00000582  00000-0  56587-4 0  9996,2 49180  69.9987 304.1807 0002777 227.0879 133.0047 14.98332622117550,6950.185,96.107,573.98,570.12,0.0
49180.0,STARLINK-3050,PAYLOAD,2023-10-23 10:00:17,14.98328792,0.0002732,69.9977,303.6754,265.3341,94.7506,1.2846e-05,6e-07,0.0,0 STARLINK-3050,1 49180U 21082BC  23296.41686772  .00000060  00000-0  12846-4 0  9999,2 49180  69.9977 303.6754 0002732 265.3341  94.7506 14.98328792117583,6950.197,96.107,573.96,570.163,0.0
49180.0,STARLINK-3050,PAYLOAD,2023-10-23 18:00:58,14.98326767,0.0002194,69.998,302.8336,270.2995,89.7913,-4.0705e-05,-5.78e-06,0.0,0 STARLINK-3050,1 49180U 21082BC  23296.75067279 -.00000578  00000-0 -40705-4 0  9992,2 49180  69.9980 302.8336 0002194 270.2995  89.7913 14.98326767117638,6950.203,96.107,573.593,570.543,0.0
